NORAD_CAT_ID,OBJECT_NAME,OBJECT_TYPE,EPOCH,MEAN_MOTION,ECCENTRICITY,INCLINATION,RA_OF_ASC_NODE,ARG_OF_PERICENTER,MEAN_ANOMALY,BSTAR,MEAN_MOTION_DOT,MEAN_MOTION_DDOT,TLE_LINE0,TLE_LINE1,TLE_LINE2,SEMIMAJOR_AXIS,PERIOD,APOGEE,PERIGEE,DECAYED
55647.0,STARLINK-5510,PAYLOAD,2024-03-12 11:09:38,14.983286,0.0003649,69.9997,217.906,267.8512,92.2229,0.00039199,4.587e-05,0.0,0 STARLINK-5510,1 55647U 23021V   24072.46502733  .00004587  00000-0  39199-3 0  9998,2 55647  69.9997 217.9060 0003649 267.8512  92.2229 14.98328600 59568,6950.197,96.107,574.598,569.526,0.0
55647.0,STARLINK-5510,PAYLOAD,2024-03-12 15:58:02,14.98332788,0.0003568,69.9992,217.3994,272.7088,87.3663,0.00036171,4.226e-05,0.0,0 STARLINK-5510,1 55647U 23021V   24072.66530569  .00004226  00000-0  36171-3 0  9995,2 55647  69.9992 217.3994 0003568 272.7088  87.3663 14.98332788 59891,6950.184,96.107,574.529,569.569,0.0
55647.0,STARLINK-5510,PAYLOAD,2024-03-13 11:11:39,14.98336856,0.0003289,69.9978,215.3788,266.5981,93.4802,-5.0336e-05,-6.94e-06,0.0,0 STARLINK-5510,1 55647U 23021V   24073.46643119 -.00000694  00000-0 -50336-4 0  9997,2 55647  69.9978 215.3788 0003289 266.5981  93.4802 14.98336856 59711,6950.172,96.107,574.323,569.751,0.0
55647.0,STARLINK-5510,PAYLOAD,2024-03-13 16:00:03,14.9833734,0.0003254,69.9995,214.8754,269.5016,90.577,-2.4846e-05,-3.9e-06,0.0,0 STARLINK-5510,1 55647U 23021V   24073.66670987 -.00000390  00000-0 -24846-4 0  9992,2 55647  69.9995 214.8754 0003254 269.5016  90.5770 14.98337340 60040,6950.17,96.107,574.297,569.774,0.0
55647.0,STARLINK-5510,PAYLOAD,2024-03-14 03:13:00,14.98344887,0.0003233,69.9995,213.6973,268.9463,91.1326,-0.00019115,-2.374e-05,0.0,0 STARLINK-5510,1 55647U 23021V   24074.13402844 -.00002374  00000-0 -19115-3 0  9996,2 55647  69.9995 213.6973 0003233 268.9463  91.1326 14.98344887 60112,6950.147,96.106,574.259,569.765,0.0
55647.0,STARLINK-5510,PAYLOAD,2024-03-14 11:13:44,14.98291512,0.000349,69.9969,212.8533,265.9654,94.1107,-0.00062976,-7.592e-05,0.0,0 STARLINK-5510,1 55647U 23021V   24074.46787207 -.00007592  00000-0 -62976-3 0  9991,2 55647  69.9969 212.8533 0003490 265.9654  94.1107 14.98291512 59866,6950.312,96.109,574.603,569.751,0.0
55647.0,STARLINK-5510,PAYLOAD,2024-03-14 19:14:22,14.98317393,0.0004222,69.9975,212.0117,269.7393,90.3282,-0.00028352,-3.474e-05,0.0,0 STARLINK-5510,1 55647U 23021V   24074.80165465 -.00003474  00000-0 -28352-3 0  9990,2 55647  69.9975 212.0117 0004222 269.7393  90.3282 14.98317393 59913,6950.232,96.108,575.031,569.162,0.0
55647.0,STARLINK-5510,PAYLOAD,2024-03-15 11:15:41,14.98334624,0.0003148,70.0003,210.3312,270.5836,89.4963,0.00015622,1.772e-05,0.0,0 STARLINK-5510,1 55647U 23021V   24075.46923573  .00001772  00000-0  15622-3 0  9998,2 55647  70.0003 210.3312 0003148 270.5836  89.4963 14.98334624 60018,6950.179,96.107,574.232,569.856,0.0
55647.0,STARLINK-5510,PAYLOAD,2024-03-15 19:16:22,14.98337149,0.0003188,70.0005,209.49,272.5914,87.488,0.00016395,1.864e-05,0.0,0 STARLINK-5510,1 55647U 23021V   24075.80303391  .00001864  00000-0  16395-3 0  9996,2 55647  70.0005 209.4900 0003188 272.5914  87.4880 14.98337149 60364,6950.171,96.107,574.251,569.82,0.0
55647.0,STARLINK-5510,PAYLOAD,2024-03-16 12:53:50,14.98323282,0.000369,70.0007,207.6386,269.1712,90.9024,0.00056801,6.69e-05,0.0,0 STARLINK-5510,1 55647U 23021V   24076.53738849  .00006690  00000-0  56801-3 0  9995,2 55647  70.0007 207.6386 0003690 269.1712  90.9024 14.98323282 60171,6950.214,96.107,574.643,569.514,0.0
55647.0,STARLINK-5510,PAYLOAD,2024-03-16 14:29:58,14.98322887,0.0003764,70.0008,207.4705,270.1962,89.8765,0.00058721,6.919e-05,0.0,0 STARLINK-5510,1 55647U 23021V   24076.60414853  .00006919  00000-0  58721-3 0  9996,2 55647  70.0008 207.4705 0003764 270.1962  89.8765 14.98322887 60489,6950.215,96.107,574.696,569.464,0.0
55647.0,STARLINK-5510,PAYLOAD,2024-03-16 17:42:14,14.98319356,0.0003242,70.0013,207.1345,275.4241,84.6548,0.00066472,7.845e-05,0.0,0 STARLINK-5510,1 55647U 23021V   24076.73767106  .00007845  00000-0  66472-3 0  9993,2 55647  70.0013 207.1345 0003242 275.4241  84.6548 14.98319356 60503,6950.226,96.108,574.344,569.838,0.0
55647.0,STARLINK-5510,PAYLOAD,2024-03-17 12:55:51,14.98341491,0.0003012,70.0014,205.1151,268.5454,91.536,-7.7472e-05,-1.018e-05,0.0,0 STARLINK-5510,1 55647U 23021V   24077.53879201 -.00001018  00000-0 -77472-4 0  9993,2 55647  70.0014 205.1151 0003012 268.5454  91.5360 14.98341491 60325,6950.157,96.106,574.116,569.929,0.0
55647.0,STARLINK-5510,PAYLOAD,2024-03-17 14:31:59,14.9834055,0.000304,70.0014,204.9467,268.1287,91.9524,-8.9028e-05,-1.155e-05,0.0,0 STARLINK-5510,1 55647U 23021V   24077.60555228 -.00001155  00000-0 -89028-4 0  9993,2 55647  70.0014 204.9467 0003040 268.1287  91.9524 14.98340550 60638,6950.16,96.106,574.138,569.912,0.0
55647.0,STARLINK-5510,PAYLOAD,2024-03-17 17:44:15,14.98339613,0.0003079,70.0013,204.6101,269.0851,90.9955,-0.00010011,-1.288e-05,0.0,0 STARLINK-5510,1 55647U 23021V   24077.73907216 -.00001288  00000-0 -10011-3 0  9997,2 55647  70.0013 204.6101 0003079 269.0851  90.9955 14.98339613 60655,6950.163,96.106,574.168,569.888,0.0
55647.0,STARLINK-5510,PAYLOAD,2024-03-18 11:21:43,14.98340918,0.000305,70.0015,202.759,264.6492,95.4319,-0.00010492,-1.345e-05,0.0,0 STARLINK-5510,1 55647U 23021V   24078.47342517 -.00001345  00000-0 -10492-3 0  9993,2 55647  70.0015 202.7590 0003050 264.6492  95.4319 14.98340918 60765,6950.159,96.106,574.144,569.904,0.0
55647.0,STARLINK-5510,PAYLOAD,2024-03-18 17:46:15,14.9834188,0.0003017,70.0016,202.0859,264.0275,96.054,-8.144e-05,-1.065e-05,0.0,0 STARLINK-5510,1 55647U 23021V   24078.74046202 -.00001065  00000-0 -81440-4 0  9996,2 55647  70.0016 202.0859 0003017 264.0275  96.0540 14.98341880 60507,6950.156,96.106,574.118,569.924,0.0
55647.0,STARLINK-5510,PAYLOAD,2024-03-19 11:23:44,14.98336236,0.0003325,70.0004,200.2321,271.5832,88.4946,9.294e-05,1.016e-05,0.0,0 STARLINK-5510,1 55647U 23021V   24079.47481723  .00001016  00000-0  92940-4 0  9999,2 55647  70.0004 200.2321 0003325 271.5832  88.4946 14.98336236 60911,6950.174,96.107,574.35,569.728,0.0
55647.0,STARLINK-5510,PAYLOAD,2024-03-20 09:49:38,14.98323625,0.0003507,70.0004,197.877,277.7495,82.3266,-0.00012464,-1.58e-05,0.0,0 STARLINK-5510,1 55647U 23021V   24080.40947064 -.00001580  00000-0 -12464-3 0  9999,2 55647  70.0004 197.8770 0003507 277.7495  82.3266 14.98323625 60753,6950.213,96.107,574.515,569.64,0.0
55647.0,STARLINK-5510,PAYLOAD,2024-03-20 13:01:54,14.98317905,0.0003015,70.0009,197.5392,266.991,93.0904,-0.000125,-1.584e-05,0.0,0 STARLINK-5510,1 55647U 23021V   24080.54299441 -.00001584  00000-0 -12500-3 0  9998,2 55647  70.0009 197.5392 0003015 266.9910  93.0904 14.98317905 61079,6950.23,96.108,574.191,570.0,0.0
55647.0,STARLINK-5510,PAYLOAD,2024-03-20 17:50:18,14.98322188,0.0003237,70.0011,197.0365,271.409,88.6698,-6.18e-06,-1.67e-06,0.0,0 STARLINK-5510,1 55647U 23021V   24080.74326956 -.00000167  00000-0 -61800-5 0  9997,2 55647  70.0011 197.0365 0003237 271.4090  88.6698 14.98322188 61106,6950.217,96.108,574.332,569.832,0.0
55647.0,STARLINK-5510,PAYLOAD,2024-03-21 11:27:46,14.98334363,0.0003306,70.0005,195.1832,272.6085,87.4696,7.3865e-06,-5e-08,0.0,0 STARLINK-5510,1 55647U 23021V   24081.47762111 -.00000005  00000-0  73865-5 0  9999,2 55647  70.0005 195.1832 0003306 272.6085  87.4696 14.98334363 60912,6950.179,96.107,574.342,569.747,0.0
55647.0,STARLINK-5510,PAYLOAD,2024-03-21 14:40:01,14.98373462,0.0002868,70.0009,194.8493,258.3739,101.7098,-0.00049921,-6.051e-05,0.0,0 STARLINK-5510,1 55647U 23021V   24081.61112739 -.00006051  00000-0 -49921-3 0  9992,2 55647  70.0009 194.8493 0002868 258.3739 101.7098 14.98373462 61239,6950.058,96.104,573.917,569.93,0.0
55647.0,STARLINK-5510,PAYLOAD,2024-03-21 17:52:17,14.98347606,0.0003062,70.001,194.5109,267.7365,92.3444,0.00013068,1.467e-05,0.0,0 STARLINK-5510,1 55647U 23021V   24081.74464798  .00001467  00000-0  13068-3 0  9998,2 55647  70.0010 194.5109 0003062 267.7365  92.3444 14.98347606 60957,6950.138,96.106,574.132,569.875,0.0
55647.0,STARLINK-5510,PAYLOAD,2024-03-22 11:29:46,14.98330322,0.0002618,70.0024,192.6617,255.0072,105.0797,0.00022668,2.613e-05,0.0,0 STARLINK-5510,1 55647U 23021V   24082.47901378  .00002613  00000-0  22668-3 0  9999,2 55647  70.0024 192.6617 0002618 255.0072 105.0797 14.98330322 61069,6950.192,96.107,573.876,570.237,0.0
55647.0,STARLINK-5510,PAYLOAD,2024-03-22 14:42:02,14.98330951,0.0002589,70.0024,192.3255,252.7273,107.3603,0.00019968,2.29e-05,0.0,0 STARLINK-5510,1 55647U 23021V   24082.61253375  .00002290  00000-0  19968-3 0  9992,2 55647  70.0024 192.3255 0002589 252.7273 107.3603 14.98330951 61382,6950.19,96.107,573.854,570.256,0.0
55647.0,STARLINK-5510,PAYLOAD,2024-03-22 16:18:10,14.98332707,0.0002663,70.0023,192.1569,256.8233,103.2629,0.0002099,2.413e-05,0.0,0 STARLINK-5510,1 55647U 23021V   24082.67929235  .00002413  00000-0  20990-3 0  9997,2 55647  70.0023 192.1569 0002663 256.8233 103.2629 14.98332707 61396,6950.185,96.107,573.9,570.199,0.0
55647.0,STARLINK-5510,PAYLOAD,2024-03-23 13:07:56,14.98328562,0.000284,70.0009,189.9665,266.8057,93.2777,-0.00015662,-1.961e-05,0.0,0 STARLINK-5510,1 55647U 23021V   24083.54718565 -.00001961  00000-0 -15662-3 0  9995,2 55647  70.0009 189.9665 0002840 266.8057  93.2777 14.98328562 61221,6950.197,96.107,574.036,570.088,0.0
55647.0,STARLINK-5510,PAYLOAD,2024-03-23 16:20:12,14.98331271,0.0002912,70.0008,189.6298,269.8995,90.1831,-0.00012018,-1.527e-05,0.0,0 STARLINK-5510,1 55647U 23021V   24083.68070327 -.00001527  00000-0 -12018-3 0  9997,2 55647  70.0008 189.6298 0002912 269.8995  90.1831 14.98331271 61546,6950.189,96.107,574.078,570.03,0.0
55647.0,STARLINK-5510,PAYLOAD,2024-03-24 13:09:57,14.98332798,0.0002615,70.0013,187.4422,253.6003,106.4868,-3.0617e-05,-4.58e-06,0.0,0 STARLINK-5510,1 55647U 23021V   24084.54858049 -.00000458  00000-0 -30617-4 0  9996,2 55647  70.0013 187.4422 0002615 253.6003 106.4868 14.98332798 61375,6950.184,96.107,573.867,570.232,0.0
